{"type": "FeatureCollection", "features": [{"type": "Feature", "properties": {"fid": 1, "nombre": "Fuente del Pípila", "lon": -101.188586, "lat": 19.710563}, "geometry": {"type": "Point", "coordinates": [-101.188586, 19.710563]}}, {"type": "Feature", "properties": {"fid": 2, "nombre": "Casa de la cultura", "lon": -101.191393, "lat": 19.706292}, "geometry": {"type": "Point", "coordinates": [-101.191393, 19.706292]}}, {"type": "Feature", "properties": {"fid": 3, "nombre": "Plaza del Carmen", "lon": -101.191779, "lat": 19.705392}, "geometry": {"type": "Point", "coordinates": [-101.191779, 19.705392]}}, {"type": "Feature", "properties": {"fid": 4, "nombre": "Jardín San José", "lon": -101.189118, "lat": 19.705399}, "geometry": {"type": "Point", "coordinates": [-101.189118, 19.705399]}}, {"type": "Feature", "properties": {"fid": 5, "nombre": "Templo de San José", "lon": -101.188776, "lat": 19.705389}, "geometry": {"type": "Point", "coordinates": [-101.188776, 19.705389]}}, {"type": "Feature", "properties": {"fid": 6, "nombre": "Templo de San Francí", "lon": -101.188659, "lat": 19.701823}, "geometry": {"type": "Point", "coordinates": [-101.188659, 19.701823]}}, {"type": "Feature", "properties": {"fid": 7, "nombre": "Casa de las Artesanías", "lon": -101.188711, "lat": 19.701565}, "geometry": {"type": "Point", "coordinates": [-101.188711, 19.701565]}}, {"type": "Feature", "properties": {"fid": 8, "nombre": "Plaza Valadolid}", "lon": -101.189391, "lat": 19.701696}, "geometry": {"type": "Point", "coordinates": [-101.189391, 19.701696]}}, {"type": "Feature", "properties": {"fid": 9, "nombre": "Plaza Melchor Ocampo", "lon": -101.191688, "lat": 19.702417}, "geometry": {"type": "Point", "coordinates": [-101.191688, 19.702417]}}, {"type": "Feature", "properties": {"fid": 10, "nombre": "Catedral de Morelia", "lon": -101.192339, "lat": 19.702472}, "geometry": {"type": "Point", "coordinates": [-101.192339, 19.702472]}}, {"type": "Feature", "properties": {"fid": 11, "nombre": "Plaza de Armas", "lon": -101.193627, "lat": 19.702519}, "geometry": {"type": "Point", "coordinates": [-101.193627, 19.702519]}}, {"type": "Feature", "properties": {"fid": 12, "nombre": "Palacio Clavijero", "lon": -101.1953, "lat": 19.70375}, "geometry": {"type": "Point", "coordinates": [-101.1953, 19.70375]}}, {"type": "Feature", "properties": {"fid": 13, "nombre": "Biblioteca Universitaria", "lon": -101.195397, "lat": 19.703305}, "geometry": {"type": "Point", "coordinates": [-101.195397, 19.703305]}}, {"type": "Feature", "properties": {"fid": 14, "nombre": "Mercado de Dulces", "lon": -101.195837, "lat": 19.703502}, "geometry": {"type": "Point", "coordinates": [-101.195837, 19.703502]}}, {"type": "Feature", "properties": {"fid": 15, "nombre": "Palacio Municipal", "lon": -101.195306, "lat": 19.701736}, "geometry": {"type": "Point", "coordinates": [-101.195306, 19.701736]}}, {"type": "Feature", "properties": {"fid": 16, "nombre": "Museo del Poder Judicial", "lon": -101.19399, "lat": 19.701801}, "geometry": {"type": "Point", "coordinates": [-101.19399, 19.701801]}}, {"type": "Feature", "properties": {"fid": 17, "nombre": "Cerrada de San Agustín", "lon": -101.193207, "lat": 19.701485}, "geometry": {"type": "Point", "coordinates": [-101.193207, 19.701485]}}, {"type": "Feature", "properties": {"fid": 18, "nombre": "Plaza de San Agustín", "lon": -101.193882, "lat": 19.700737}, "geometry": {"type": "Point", "coordinates": [-101.193882, 19.700737]}}, {"type": "Feature", "properties": {"fid": 19, "nombre": "Templo de San Agustín", "lon": -101.193299, "lat": 19.700856}, "geometry": {"type": "Point", "coordinates": [-101.193299, 19.700856]}}, {"type": "Feature", "properties": {"fid": 20, "nombre": "Casa Natal de Morelos", "lon": -101.192523, "lat": 19.700886}, "geometry": {"type": "Point", "coordinates": [-101.192523, 19.700886]}}, {"type": "Feature", "properties": {"fid": 21, "nombre": "Fuente del Ángel", "lon": -101.192504, "lat": 19.698715}, "geometry": {"type": "Point", "coordinates": [-101.192504, 19.698715]}}, {"type": "Feature", "properties": {"fid": 22, "nombre": "Plazuela de Capuchinas", "lon": -101.18921, "lat": 19.698531}, "geometry": {"type": "Point", "coordinates": [-101.18921, 19.698531]}}, {"type": "Feature", "properties": {"fid": 23, "nombre": "Templo de Capuchinas", "lon": -101.188956, "lat": 19.69822}, "geometry": {"type": "Point", "coordinates": [-101.188956, 19.69822]}}, {"type": "Feature", "properties": {"fid": 24, "nombre": "Mercado Independencia", "lon": -101.188838, "lat": 19.696184}, "geometry": {"type": "Point", "coordinates": [-101.188838, 19.696184]}}, {"type": "Feature", "properties": {"fid": 25, "nombre": "Plaza Carrillo", "lon": -101.194668, "lat": 19.696473}, "geometry": {"type": "Point", "coordinates": [-101.194668, 19.696473]}}, {"type": "Feature", "properties": {"fid": 26, "nombre": "Calzada Juárez", "lon": -101.195316, "lat": 19.695709}, "geometry": {"type": "Point", "coordinates": [-101.195316, 19.695709]}}]}