{"type": "FeatureCollection", "features": [{"type": "Feature", "properties": {"nombre": "Corredor Peatonal Norte-Sur", "longitud_metros": 4660.68, "longitud_km": 4.66}, "geometry": {"type": "LineString", "coordinates": [[-101.188794, 19.710675], [-101.189107, 19.710171], [-101.18942, 19.709693], [-101.189689, 19.709276], [-101.189961, 19.708832], [-101.190198, 19.708399], [-101.190408, 19.707959], [-101.190545, 19.707897], [-101.190708, 19.70742], [-101.190813, 19.707168], [-101.190957, 19.70678], [-101.191087, 19.706397], [-101.191203, 19.706032], [-101.191356, 19.705744], [-101.191439, 19.705536], [-101.191437, 19.705319], [-101.190752, 19.705317], [-101.190045, 19.705318], [-101.189867, 19.705325], [-101.189607, 19.705335], [-101.189536, 19.705264], [-101.189487, 19.705291], [-101.189417, 19.705233], [-101.189372, 19.705233], [-101.189251, 19.70518], [-101.188735, 19.705186], [-101.188686, 19.705182], [-101.188703, 19.704676], [-101.188698, 19.704559], [-101.18871, 19.704055], [-101.188714, 19.703827], [-101.188712, 19.703706], [-101.188725, 19.703152], [-101.188734, 19.702927], [-101.188749, 19.702727], [-101.188769, 19.702248], [-101.188773, 19.702111], [-101.188794, 19.701945], [-101.189557, 19.701966], [-101.189561, 19.701826], [-101.189824, 19.701846], [-101.19036, 19.701842], [-101.191401, 19.701876], [-101.191765, 19.701886], [-101.191939, 19.701888], [-101.191924, 19.702751], [-101.192463, 19.702761], [-101.193599, 19.702747], [-101.193975, 19.702756], [-101.194088, 19.702826], [-101.194119, 19.702901], [-101.194991, 19.702926], [-101.195884, 19.702954], [-101.195912, 19.702955], [-101.195945, 19.701901], [-101.195513, 19.701897], [-101.195191, 19.701894], [-101.19513, 19.701892], [-101.194245, 19.701877], [-101.193884, 19.701879], [-101.193289, 19.701856], [-101.193257, 19.701855], [-101.193255, 19.700943], [-101.192392, 19.700939], [-101.192411, 19.699822], [-101.192426, 19.699102], [-101.192434, 19.698699], [-101.192457, 19.698157], [-101.192001, 19.698186], [-101.191547, 19.698217], [-101.191256, 19.698292], [-101.190903, 19.698348], [-101.190546, 19.698388], [-101.189967, 19.698363], [-101.189812, 19.698358], [-101.189731, 19.698331], [-101.189346, 19.698315], [-101.189344, 19.698277], [-101.188542, 19.698281], [-101.187776, 19.698279], [-101.187786, 19.697078], [-101.187838, 19.696901], [-101.187879, 19.695951], [-101.188267, 19.69596], [-101.18869, 19.695992], [-101.18902, 19.696002], [-101.189373, 19.695993], [-101.190262, 19.695941], [-101.19119, 19.695943], [-101.192376, 19.69605], [-101.193163, 19.696115], [-101.19348, 19.69616], [-101.194248, 19.696213], [-101.194425, 19.696264], [-101.195055, 19.696315], [-101.195229, 19.696317], [-101.195285, 19.696107], [-101.19529, 19.695907]]}}]}